40072,SKYSAT-B,2014,96.87,90.0,+,98.34,Active,1,LEO,Kazakhstan,USA,Commercial,Earth Observation,Soyuz,1 40072U 14037D   25158.79244669  .00001131  00000+0  13453-3 0  9990,2 40072  98.3426  93.0120 0007038  58.6534 301.5368 14.86525007590391,14.86525007,0.0007038,LEO
40115,WORLDVIEW-3 (WV-3),2014,96.97,2800.0,+,97.88,Active,1,LEO,USA,USA,Commercial,Earth Observation,Atlas,1 40115U 14048A   25158.53524798  .00000875  00000+0  10892-3 0  9994,2 40115  97.8779 233.0487 0006570  96.0365 264.1598 14.84964334586307,14.84964334,0.000657,LEO
40118,GAOFEN-2,2014,97.26,1000.0,+,98.06,Active,1,LEO,PRC,China,Government,Earth Observation,Long March,1 40118U 14049A   25158.84126567  .00000830  00000+0  11540-3 0  9996,2 40118  98.0598 217.4304 0004679  13.3848 346.7487 14.80511449583854,14.80511449,0.0004679,LEO
40143,YAOGAN-21,2014,94.51,-1.0,+,97.2,Active,1,LEO,PRC,China,Military,Earth Observation,Long March,1 40143U 14053A   25158.86177765  .00006133  00000+0  25799-3 0  9990,2 40143  97.1998 209.9594 0012030  25.4876 334.6952 15.23673320597974,15.2367332,0.001203,LEO
40275,YAOGAN-22,2014,109.46,-1.0,+,100.72,Active,1,LEO,PRC,China,Military,Earth Observation,Long March,1 40275U 14063A   25158.85978073 -.00000041  00000+0  13941-4 0  9997,2 40275 100.7160 299.8756 0005857 316.3331  43.7316 13.15511640510597,13.1551164,0.0005857,LEO
40298,ASNARO,2014,94.76,500.0,+,97.38,Active,1,LEO,Russia,Japan,Government,Earth Observation,Dnepr,1 40298U 14070A   25158.86932209  .00007984  00000+0  37724-3 0  9998,2 40298  97.3796 239.1941 0004567  65.7615 294.4096 15.19665873587181,15.19665873,0.0004567,LEO
40310,YAOGAN-24,2014,97.55,-1.0,+,98.1,Active,1,LEO,PRC,China,Military,Earth Observation,Long March,1 40310U 14072A   25158.84929503  .00000658  00000+0  10264-3 0  9997,2 40310  98.0989 289.2270 0014758  33.2741 326.9394 14.76200065568510,14.76200065,0.0014758,LEO
40336,CBERS 4,2014,100.31,1980.0,+,98.35,Active,1,LEO,PRC,China/Brazil,Government,Earth Observation,Long March,1 40336U 14079A   25158.87959065  .00000098  00000+0  48599-4 0  9992,2 40336  98.3535 223.0231 0001429  60.7298 299.4031 14.35508397550274,14.35508397,0.0001429,LEO
40362,YAOGAN-26,2014,93.95,-1.0,+,97.06,Active,1,LEO,PRC,China,Military,Earth Observation,Long March,1 40362U 14088A   25158.84314121  .00010822  00000+0  34503-3 0  9991,2 40362  97.0634 167.2192 0004673 347.4671  12.6455 15.32677814581568,15.32677814,0.0004673,LEO
40376,SMAP,2015,98.4,-1.0,P,98.13,Active,1,LEO,USA,USA,Government,Earth Observation,Delta,1 40376U 15003A   25158.85694629  .00000437  00000+0  93484-4 0  9994,2 40376  98.1272 166.2288 0001803  90.6417 269.4992 14.63407355552879,14.63407355,0.0001803,LEO
40536,KOMPSAT-3A,2015,93.7,980.0,+,97.66,Active,1,LEO,Russia,South Korea,Commercial/Government,Earth Observation,Dnepr,1 40536U 15014A   25158.86937711  .00011107  00000+0  31048-3 0  9990,2 40536  97.6554 124.3656 0006075  97.4168 262.7766 15.36851503564060,15.36851503,0.0006075,LEO
40697,SENTINEL-2A,2015,100.64,1130.0,+,98.57,Active,1,LEO,French Guiana,ESA,Government,Earth Observation,Vega,1 40697U 15028A   25158.80909955  .00000107  00000+0  57508-4 0  9994,2 40697  98.5694 234.0247 0001291  97.5402 262.5928 14.30821162520190,14.30821162,0.0001291,LEO
40701,GAOFEN-8,2015,93.99,1000.0,+,97.69,Active,1,LEO,PRC,China,Military,Earth Observation,Long March,1 40701U 15030A   25158.87585822  .00012429  00000+0  40197-3 0  9998,2 40701  97.6881 328.9834 0013633  89.7606 270.5197 15.32130723553890,15.32130723,0.0013633,LEO
40718,CARBONITE 1 (CBNT-1),2015,97.18,91.0,+,97.64,Active,1,LEO,India,UK,Commercial,Technology Development,PSLV,1 40718U 15032D   25158.83599941  .00001531  00000+0  19990-3 0  9990,2 40718  97.6439 348.2840 0016413  83.1915 277.1166 14.81774023533874,14.81774023,0.0016413,LEO
