[
  {
    "OBJECT_NAME": "SKYSAT-B",
    "OBJECT_ID": "2014-037D",
    "EPOCH": "2025-06-07T19:01:07.394016",
    "MEAN_MOTION": 14.86525007,
    "ECCENTRICITY": 0.0007038,
    "INCLINATION": 98.3426,
    "RA_OF_ASC_NODE": 93.012,
    "ARG_OF_PERICENTER": 58.6534,
    "MEAN_ANOMALY": 301.5368,
    "EPHEMERIS_TYPE": 0,
    "CLASSIFICATION_TYPE": "U",
    "NORAD_CAT_ID": 40072,
    "ELEMENT_SET_NO": 999,
    "REV_AT_EPOCH": 59039,
    "BSTAR": 0.00013453,
    "MEAN_MOTION_DOT": 1.131e-05,
    "MEAN_MOTION_DDOT": 0
  },
  {
    "OBJECT_NAME": "WORLDVIEW-3 (WV-3)",
    "OBJECT_ID": "2014-048A",
    "EPOCH": "2025-06-07T12:50:45.425472",
    "MEAN_MOTION": 14.84964334,
    "ECCENTRICITY": 0.000657,
    "INCLINATION": 97.8779,
    "RA_OF_ASC_NODE": 233.0487,
    "ARG_OF_PERICENTER": 96.0365,
    "MEAN_ANOMALY": 264.1598,
    "EPHEMERIS_TYPE": 0,
    "CLASSIFICATION_TYPE": "U",
    "NORAD_CAT_ID": 40115,
    "ELEMENT_SET_NO": 999,
    "REV_AT_EPOCH": 58630,
    "BSTAR": 0.00010892,
    "MEAN_MOTION_DOT": 8.75e-06,
    "MEAN_MOTION_DDOT": 0
  },
  {
    "OBJECT_NAME": "GAOFEN-2",
    "OBJECT_ID": "2014-049A",
    "EPOCH": "2025-06-07T20:11:25.353888",
    "MEAN_MOTION": 14.80511449,
    "ECCENTRICITY": 0.0004679,
    "INCLINATION": 98.0598,
    "RA_OF_ASC_NODE": 217.4304,
    "ARG_OF_PERICENTER": 13.3848,
    "MEAN_ANOMALY": 346.7487,
    "EPHEMERIS_TYPE": 0,
    "CLASSIFICATION_TYPE": "U",
    "NORAD_CAT_ID": 40118,
    "ELEMENT_SET_NO": 999,
    "REV_AT_EPOCH": 58385,
    "BSTAR": 0.0001154,
    "MEAN_MOTION_DOT": 8.3e-06,
    "MEAN_MOTION_DDOT": 0
  },
  {
    "OBJECT_NAME": "YAOGAN-21",
    "OBJECT_ID": "2014-053A",
    "EPOCH": "2025-06-07T20:40:57.588960",
    "MEAN_MOTION": 15.2367332,
    "ECCENTRICITY": 0.001203,
    "INCLINATION": 97.1998,
    "RA_OF_ASC_NODE": 209.9594,
    "ARG_OF_PERICENTER": 25.4876,
    "MEAN_ANOMALY": 334.6952,
    "EPHEMERIS_TYPE": 0,
    "CLASSIFICATION_TYPE": "U",
    "NORAD_CAT_ID": 40143,
    "ELEMENT_SET_NO": 999,
    "REV_AT_EPOCH": 59797,
    "BSTAR": 0.00025799,
    "MEAN_MOTION_DOT": 6.133e-05,
    "MEAN_MOTION_DDOT": 0
  },
  {
    "OBJECT_NAME": "YAOGAN-22",
    "OBJECT_ID": "2014-063A",
    "EPOCH": "2025-06-07T20:38:05.055072",
    "MEAN_MOTION": 13.1551164,
    "ECCENTRICITY": 0.0005857,
    "INCLINATION": 100.716,
    "RA_OF_ASC_NODE": 299.8756,
    "ARG_OF_PERICENTER": 316.3331,
    "MEAN_ANOMALY": 43.7316,
    "EPHEMERIS_TYPE": 0,
    "CLASSIFICATION_TYPE": "U",
    "NORAD_CAT_ID": 40275,
    "ELEMENT_SET_NO": 999,
    "REV_AT_EPOCH": 51059,
    "BSTAR": 1.3941e-05,
    "MEAN_MOTION_DOT": -4.1e-07,
    "MEAN_MOTION_DDOT": 0
  },
  {
    "OBJECT_NAME": "ASNARO",
    "OBJECT_ID": "2014-070A",
    "EPOCH": "2025-06-07T20:51:49.428576",
    "MEAN_MOTION": 15.19665873,
    "ECCENTRICITY": 0.0004567,
    "INCLINATION": 97.3796,
    "RA_OF_ASC_NODE": 239.1941,
    "ARG_OF_PERICENTER": 65.7615,
    "MEAN_ANOMALY": 294.4096,
    "EPHEMERIS_TYPE": 0,
    "CLASSIFICATION_TYPE": "U",
    "NORAD_CAT_ID": 40298,
    "ELEMENT_SET_NO": 999,
    "REV_AT_EPOCH": 58718,
    "BSTAR": 0.00037724,
    "MEAN_MOTION_DOT": 7.984e-05,
    "MEAN_MOTION_DDOT": 0
  },
  {
    "OBJECT_NAME": "YAOGAN-24",
    "OBJECT_ID": "2014-072A",
    "EPOCH": "2025-06-07T20:22:59.090592",
    "MEAN_MOTION": 14.76200065,
    "ECCENTRICITY": 0.0014758,
    "INCLINATION": 98.0989,
    "RA_OF_ASC_NODE": 289.227,
    "ARG_OF_PERICENTER": 33.2741,
    "MEAN_ANOMALY": 326.9394,
    "EPHEMERIS_TYPE": 0,
    "CLASSIFICATION_TYPE": "U",
    "NORAD_CAT_ID": 40310,
    "ELEMENT_SET_NO": 999,
    "REV_AT_EPOCH": 56851,
    "BSTAR": 0.00010264,
    "MEAN_MOTION_DOT": 6.58e-06,
    "MEAN_MOTION_DDOT": 0
  },
  {
    "OBJECT_NAME": "CBERS 4",
    "OBJECT_ID": "2014-079A",
    "EPOCH": "2025-06-07T21:06:36.632160",
    "MEAN_MOTION": 14.35508397,
    "ECCENTRICITY": 0.0001429,
    "INCLINATION": 98.3535,
    "RA_OF_ASC_NODE": 223.0231,
    "ARG_OF_PERICENTER": 60.7298,
    "MEAN_ANOMALY": 299.4031,
    "EPHEMERIS_TYPE": 0,
    "CLASSIFICATION_TYPE": "U",
    "NORAD_CAT_ID": 40336,
    "ELEMENT_SET_NO": 999,
    "REV_AT_EPOCH": 55027,
    "BSTAR": 4.8599e-05,
    "MEAN_MOTION_DOT": 9.8e-07,
    "MEAN_MOTION_DDOT": 0
  },
  {
    "OBJECT_NAME": "YAOGAN-26",
    "OBJECT_ID": "2014-088A",
    "EPOCH": "2025-06-07T20:14:07.400544",
    "MEAN_MOTION": 15.32677814,
    "ECCENTRICITY": 0.0004673,
    "INCLINATION": 97.0634,
    "RA_OF_ASC_NODE": 167.2192,
    "ARG_OF_PERICENTER": 347.4671,
    "MEAN_ANOMALY": 12.6455,
    "EPHEMERIS_TYPE": 0,
    "CLASSIFICATION_TYPE": "U",
    "NORAD_CAT_ID": 40362,
    "ELEMENT_SET_NO": 999,
    "REV_AT_EPOCH": 58156,
    "BSTAR": 0.00034503,
    "MEAN_MOTION_DOT": 0.00010822,
    "MEAN_MOTION_DDOT": 0
  },
  {
    "OBJECT_NAME": "SMAP",
    "OBJECT_ID": "2015-003A",
    "EPOCH": "2025-06-07T20:34:00.159456",
    "MEAN_MOTION": 14.63407355,
    "ECCENTRICITY": 0.0001803,
    "INCLINATION": 98.1272,
    "RA_OF_ASC_NODE": 166.2288,
    "ARG_OF_PERICENTER": 90.6417,
    "MEAN_ANOMALY": 269.4992,
    "EPHEMERIS_TYPE": 0,
    "CLASSIFICATION_TYPE": "U",
    "NORAD_CAT_ID": 40376,
    "ELEMENT_SET_NO": 999,
    "REV_AT_EPOCH": 55287,
    "BSTAR": 9.3484e-05,
    "MEAN_MOTION_DOT": 4.37e-06,
    "MEAN_MOTION_DDOT": 0
  },
  {
    "OBJECT_NAME": "KOMPSAT-3A",
    "OBJECT_ID": "2015-014A",
    "EPOCH": "2025-06-07T20:51:54.182304",
    "MEAN_MOTION": 15.36851503,
    "ECCENTRICITY": 0.0006075,
    "INCLINATION": 97.6554,
    "RA_OF_ASC_NODE": 124.3656,
    "ARG_OF_PERICENTER": 97.4168,
    "MEAN_ANOMALY": 262.7766,
    "EPHEMERIS_TYPE": 0,
    "CLASSIFICATION_TYPE": "U",
    "NORAD_CAT_ID": 40536,
    "ELEMENT_SET_NO": 999,
    "REV_AT_EPOCH": 56406,
    "BSTAR": 0.00031048,
    "MEAN_MOTION_DOT": 0.00011107,
    "MEAN_MOTION_DDOT": 0
  },
  {
    "OBJECT_NAME": "SENTINEL-2A",
    "OBJECT_ID": "2015-028A",
    "EPOCH": "2025-06-07T19:25:06.201120",
    "MEAN_MOTION": 14.30821162,
    "ECCENTRICITY": 0.0001291,
    "INCLINATION": 98.5694,
    "RA_OF_ASC_NODE": 234.0247,
    "ARG_OF_PERICENTER": 97.5402,
    "MEAN_ANOMALY": 262.5928,
    "EPHEMERIS_TYPE": 0,
    "CLASSIFICATION_TYPE": "U",
    "NORAD_CAT_ID": 40697,
    "ELEMENT_SET_NO": 999,
    "REV_AT_EPOCH": 52019,
    "BSTAR": 5.7508e-05,
    "MEAN_MOTION_DOT": 1.07e-06,
    "MEAN_MOTION_DDOT": 0
  },
  {
    "OBJECT_NAME": "GAOFEN-8",
    "OBJECT_ID": "2015-030A",
    "EPOCH": "2025-06-07T21:01:14.150208",
    "MEAN_MOTION": 15.32130723,
    "ECCENTRICITY": 0.0013633,
    "INCLINATION": 97.6881,
    "RA_OF_ASC_NODE": 328.9834,
    "ARG_OF_PERICENTER": 89.7606,
    "MEAN_ANOMALY": 270.5197,
    "EPHEMERIS_TYPE": 0,
    "CLASSIFICATION_TYPE": "U",
    "NORAD_CAT_ID": 40701,
    "ELEMENT_SET_NO": 999,
    "REV_AT_EPOCH": 55389,
    "BSTAR": 0.00040197,
    "MEAN_MOTION_DOT": 0.00012429,
    "MEAN_MOTION_DDOT": 0
  },
  {
    "OBJECT_NAME": "CARBONITE 1 (CBNT-1)",
    "OBJECT_ID": "2015-032D",
    "EPOCH": "2025-06-07T20:03:50.349024",
    "MEAN_MOTION": 14.81774023,
    "ECCENTRICITY": 0.0016413,
    "INCLINATION": 97.6439,
    "RA_OF_ASC_NODE": 348.284,
    "ARG_OF_PERICENTER": 83.1915,
    "MEAN_ANOMALY": 277.1166,
    "EPHEMERIS_TYPE": 0,
    "CLASSIFICATION_TYPE": "U",
    "NORAD_CAT_ID": 40718,
    "ELEMENT_SET_NO": 999,
    "REV_AT_EPOCH": 53387,
    "BSTAR": 0.0001999,
    "MEAN_MOTION_DOT": 1.531e-05,
    "MEAN_MOTION_DDOT": 0
  }
]